{
  "norad_id": 53738,
  "name": "STARLINK-4662",
  "history": [
    {
      "epoch": "2026-03-28T13:09:48.626208",
      "apogee_km": 540.7276769386963,
      "perigee_km": 538.8576221958256,
      "latitude_deg": -1.6077841852908552,
      "longitude_deg": -33.545970879960805,
      "semi_major_axis_km": 6917.929649567261,
      "eccentricity": 0.00013516,
      "inclination_deg": 53.2174,
      "raan_deg": 179.2351,
      "arg_perigee_deg": 93.5321,
      "mean_anomaly_deg": 266.5826,
      "mean_motion_rev_day": 15.08823884
    }
  ]
}