{"fetched_at":"2026-03-29T16:36:15Z","count":15609,"tles":[{"name":"STARLINK-4662","line1":"1 53738U 22107AQ  26087.54847947 -.00002082  00000+0 -11283-3 0  9990","line2":"2 53738  53.2174 179.2351 0001351  93.5321 266.5826 15.08823884197291","category":"Starlink"}]}